{
  "type": "FeatureCollection",
  "features": [
    {
      "type": "Feature",
      "properties": {
        "norad_id": 39773,
        "name": "EUTELSAT 3B",
        "group": "eutelsat",
        "lat": -0.07044437630478448,
        "lon": -123.67343252371143,
        "alt_km": 35768.29274122462,
        "timestamp": "2025-12-20T09:36:01.303302+00:00",
        "meta_object_name": "EUTELSAT 3B",
        "meta_object_id": "2014-030A",
        "meta_epoch": "2025-12-20T02:58:22.553760",
        "meta_mean_motion": 1.00272501,
        "meta_eccentricity": 0.0004169,
        "meta_inclination": 0.0607,
        "meta_ra_of_asc_node": 5.5727,
        "meta_arg_of_pericenter": 227.188,
        "meta_mean_anomaly": 263.8885,
        "meta_ephemeris_type": 0,
        "meta_classification_type": "U",
        "meta_norad_cat_id": 39773,
        "meta_element_set_no": 999,
        "meta_rev_at_epoch": 4227,
        "meta_bstar": 0,
        "meta_mean_motion_dot": 4.4e-07,
        "meta_mean_motion_ddot": 0,
        "tle_line1": "1 39773U 14030A   25354.12387215  .00000044  00000+0  00000+0 0  9991",
        "tle_line2": "2 39773   0.0607   5.5727 0004169 227.1880 263.8885  1.00272501 42271"
      },
      "geometry": {
        "type": "Point",
        "coordinates": [
          -123.67343252371143,
          -0.07044437630478448
        ]
      }
    },
    {
      "type": "Feature",
      "properties": {
        "norad_id": 40425,
        "name": "EUTELSAT 115 WEST B",
        "group": "eutelsat",
        "lat": -0.012205479519006104,
        "lon": 118.33845758309506,
        "alt_km": 35787.44783351104,
        "timestamp": "2025-12-20T09:36:01.303314+00:00",
        "meta_object_name": "EUTELSAT 115 WEST B",
        "meta_object_id": "2015-010B",
        "meta_epoch": "2025-12-20T04:37:38.708832",
        "meta_mean_motion": 1.00271744,
        "meta_eccentricity": 3.75e-05,
        "meta_inclination": 0.0106,
        "meta_ra_of_asc_node": 158.3005,
        "meta_arg_of_pericenter": 170.8788,
        "meta_mean_anomaly": 74.3684,
        "meta_ephemeris_type": 0,
        "meta_classification_type": "U",
        "meta_norad_cat_id": 40425,
        "meta_element_set_no": 999,
        "meta_rev_at_epoch": 3959,
        "meta_bstar": 0,
        "meta_mean_motion_dot": -1e-08,
        "meta_mean_motion_ddot": 0,
        "tle_line1": "1 40425U 15010B   25354.19280913 -.00000001  00000+0  00000+0 0  9994",
        "tle_line2": "2 40425   0.0106 158.3005 0000375 170.8788  74.3684  1.00271744 39594"
      },
      "geometry": {
        "type": "Point",
        "coordinates": [
          118.33845758309506,
          -0.012205479519006104
        ]
      }
    },
    {
      "type": "Feature",
      "properties": {
        "norad_id": 40875,
        "name": "EUTELSAT 8 WEST B",
        "group": "eutelsat",
        "lat": -0.06784933250686298,
        "lon": -134.79873027594812,
        "alt_km": 35773.38957212241,
        "timestamp": "2025-12-20T09:36:01.303326+00:00",
        "meta_object_name": "EUTELSAT 8 WEST B",
        "meta_object_id": "2015-039B",
        "meta_epoch": "2025-12-20T03:56:38.499936",
        "meta_mean_motion": 1.00271058,
        "meta_eccentricity": 0.0004276,
        "meta_inclination": 0.0633,
        "meta_ra_of_asc_node": 357.3872,
        "meta_arg_of_pericenter": 272.4558,
        "meta_mean_anomaly": 230.3262,
        "meta_ephemeris_type": 0,
        "meta_classification_type": "U",
        "meta_norad_cat_id": 40875,
        "meta_element_set_no": 999,
        "meta_rev_at_epoch": 3786,
        "meta_bstar": 0,
        "meta_mean_motion_dot": -4.2e-07,
        "meta_mean_motion_ddot": 0,
        "tle_line1": "1 40875U 15039B   25354.16433449 -.00000042  00000+0  00000+0 0  9990",
        "tle_line2": "2 40875   0.0633 357.3872 0004276 272.4558 230.3262  1.00271058 37861"
      },
      "geometry": {
        "type": "Point",
        "coordinates": [
          -134.79873027594812,
          -0.06784933250686298
        ]
      }
    },
    {
      "type": "Feature",
      "properties": {
        "norad_id": 41310,
        "name": "EUTELSAT 9B",
        "group": "eutelsat",
        "lat": -0.012332529625393718,
        "lon": -117.80376121282653,
        "alt_km": 35769.93624718263,
        "timestamp": "2025-12-20T09:36:01.303355+00:00",
        "meta_object_name": "EUTELSAT 9B",
        "meta_object_id": "2016-005A",
        "meta_epoch": "2025-12-20T03:00:07.388064",
        "meta_mean_motion": 1.00272576,
        "meta_eccentricity": 0.0004466,
        "meta_inclination": 0.0617,
        "meta_ra_of_asc_node": 71.3898,
        "meta_arg_of_pericenter": 203.7211,
        "meta_mean_anomaly": 227.8764,
        "meta_ephemeris_type": 0,
        "meta_classification_type": "U",
        "meta_norad_cat_id": 41310,
        "meta_element_set_no": 999,
        "meta_rev_at_epoch": 3632,
        "meta_bstar": 0,
        "meta_mean_motion_dot": 8.6e-07,
        "meta_mean_motion_ddot": 0,
        "tle_line1": "1 41310U 16005A   25354.12508551  .00000086  00000+0  00000+0 0  9999",
        "tle_line2": "2 41310   0.0617  71.3898 0004466 203.7211 227.8764  1.00272576 36327"
      },
      "geometry": {
        "type": "Point",
        "coordinates": [
          -117.80376121282653,
          -0.012332529625393718
        ]
      }
    },
    {
      "type": "Feature",
      "properties": {
        "norad_id": 41382,
        "name": "EUTELSAT 65 WEST A",
        "group": "eutelsat",
        "lat": -0.014158349611825839,
        "lon": 168.0013707022106,
        "alt_km": 35787.65971492937,
        "timestamp": "2025-12-20T09:36:01.303369+00:00",
        "meta_object_name": "EUTELSAT 65 WEST A",
        "meta_object_id": "2016-014A",
        "meta_epoch": "2025-12-20T03:02:56.072832",
        "meta_mean_motion": 1.00274211,
        "meta_eccentricity": 0.000212,
        "meta_inclination": 0.0535,
        "meta_ra_of_asc_node": 331.41,
        "meta_arg_of_pericenter": 300.977,
        "meta_mean_anomaly": 157.1048,
        "meta_ephemeris_type": 0,
        "meta_classification_type": "U",
        "meta_norad_cat_id": 41382,
        "meta_element_set_no": 999,
        "meta_rev_at_epoch": 3574,
        "meta_bstar": 0,
        "meta_mean_motion_dot": -2.52e-06,
        "meta_mean_motion_ddot": 0,
        "tle_line1": "1 41382U 16014A   25354.12703788 -.00000252  00000+0  00000+0 0  9993",
        "tle_line2": "2 41382   0.0535 331.4100 0002120 300.9770 157.1048  1.00274211 35749"
      },
      "geometry": {
        "type": "Point",
        "coordinates": [
          168.0013707022106,
          -0.014158349611825839
        ]
      }
    },
    {
      "type": "Feature",
      "properties": {
        "norad_id": 41589,
        "name": "EUTELSAT 117 WEST B",
        "group": "eutelsat",
        "lat": -0.008816872432068709,
        "lon": 116.24725375675082,
        "alt_km": 35787.50247956313,
        "timestamp": "2025-12-20T09:36:01.303382+00:00",
        "meta_object_name": "EUTELSAT 117 WEST B",
        "meta_object_id": "2016-038B",
        "meta_epoch": "2025-12-19T12:07:15.989088",
        "meta_mean_motion": 1.00271292,
        "meta_eccentricity": 3.33e-05,
        "meta_inclination": 0.0139,
        "meta_ra_of_asc_node": 154.0822,
        "meta_arg_of_pericenter": 162.5919,
        "meta_mean_anomaly": 196.5118,
        "meta_ephemeris_type": 0,
        "meta_classification_type": "U",
        "meta_norad_cat_id": 41589,
        "meta_element_set_no": 999,
        "meta_rev_at_epoch": 3486,
        "meta_bstar": 0,
        "meta_mean_motion_dot": 1.3e-07,
        "meta_mean_motion_ddot": 0,
        "tle_line1": "1 41589U 16038B   25353.50504617  .00000013  00000+0  00000+0 0  9993",
        "tle_line2": "2 41589   0.0139 154.0822 0000333 162.5919 196.5118  1.00271292 34862"
      },
      "geometry": {
        "type": "Point",
        "coordinates": [
          116.24725375675082,
          -0.008816872432068709
        ]
      }
    },
    {
      "type": "Feature",
      "properties": {
        "norad_id": 42741,
        "name": "EUTELSAT 172B",
        "group": "eutelsat",
        "lat": 0.0005772685707168651,
        "lon": 45.2289387788529,
        "alt_km": 35785.20147448145,
        "timestamp": "2025-12-20T09:36:01.303394+00:00",
        "meta_object_name": "EUTELSAT 172B",
        "meta_object_id": "2017-029B",
        "meta_epoch": "2025-12-20T02:16:38.768160",
        "meta_mean_motion": 1.00272189,
        "meta_eccentricity": 2.32e-05,
        "meta_inclination": 0.0398,
        "meta_ra_of_asc_node": 130.7806,
        "meta_arg_of_pericenter": 314.1582,
        "meta_mean_anomaly": 210.1564,
        "meta_ephemeris_type": 0,
        "meta_classification_type": "U",
        "meta_norad_cat_id": 42741,
        "meta_element_set_no": 999,
        "meta_rev_at_epoch": 3193,
        "meta_bstar": 0,
        "meta_mean_motion_dot": 1.9e-07,
        "meta_mean_motion_ddot": 0,
        "tle_line1": "1 42741U 17029B   25354.09489315  .00000019  00000+0  00000+0 0  9993",
        "tle_line2": "2 42741   0.0398 130.7806 0000232 314.1582 210.1564  1.00272189 31931"
      },
      "geometry": {
        "type": "Point",
        "coordinates": [
          45.2289387788529,
          0.0005772685707168651
        ]
      }
    }
  ]
}